ONEWEB-0492             
1 54114U 22138B   24180.79574357 -.00000002  00000+0 -38201-4 0  9994
2 54114  87.9154  87.9263 0002181  70.6991 289.4378 13.19726060 82950
ONEWEB-0495             
1 54115U 22138C   24180.77362578 -.00000047  00000+0 -15017-3 0  9991
2 54115  87.9153  87.9403 0002475  71.9999 288.1403 13.19726290 82932
ONEWEB-0497             
1 54116U 22138D   24180.78626081  .00000031  00000+0  45553-4 0  9995
2 54116  87.9148  87.9274 0002104  74.9454 285.1911 13.19727036 82920
ONEWEB-0499             
1 54117U 22138E   24180.76889914  .00000085  00000+0  17982-3 0  9993
2 54117  87.9152  87.9325 0002357  87.7322 272.4081 13.19726410 82932
ONEWEB-0500             
1 54118U 22138F   24180.77204699  .00000068  00000+0  13754-3 0  9990
2 54118  87.9150  87.9276 0002010  74.8327 285.3028 13.19727284 82949
ONEWEB-0501             
1 54119U 22138G   24180.49879903  .00000002  00000+0 -28215-4 0  9994
2 54119  87.9149  87.9804 0002530  74.9482 285.1930 13.19726387 82016
ONEWEB-0502             
1 54120U 22138H   24180.78784352  .00005445  00000+0  13564-1 0  9994
2 54120  87.9145  87.9117 0001990  95.5263 264.6097 13.19700885 82949
ONEWEB-0503             
1 54121U 22138J   24180.77677981 -.00000280  00000+0 -73176-3 0  9994
2 54121  87.9147  87.9206 0002090  91.0933 269.0439 13.19725605 82933
